[{"OBJECT_NAME":"STARLINK-5242","OBJECT_ID":"2022-141S","EPOCH":"2026-03-09T22:55:31.267200","MEAN_MOTION":15.08824596,"ECCENTRICITY":0.00014977,"INCLINATION":53.2184,"RA_OF_ASC_NODE":2.5094,"ARG_OF_PERICENTER":100.807,"MEAN_ANOMALY":259.3091,"EPHEMERIS_TYPE":0,"CLASSIFICATION_TYPE":"U","NORAD_CAT_ID":54173,"ELEMENT_SET_NO":999,"REV_AT_EPOCH":18590,"BSTAR":0.00011188769,"MEAN_MOTION_DOT":1.492e-5,"MEAN_MOTION_DDOT":0},{"OBJECT_NAME":"OBJECT BE","OBJECT_ID":"2018-099BE","EPOCH":"2026-03-09T15:10:24.322944","MEAN_MOTION":15.09972337,"ECCENTRICITY":0.0006427,"INCLINATION":97.4031,"RA_OF_ASC_NODE":111.7891,"ARG_OF_PERICENTER":340.4925,"MEAN_ANOMALY":19.6058,"EPHEMERIS_TYPE":0,"CLASSIFICATION_TYPE":"U","NORAD_CAT_ID":43810,"ELEMENT_SET_NO":999,"REV_AT_EPOCH":39698,"BSTAR":0.00027209,"MEAN_MOTION_DOT":4.358e-5,"MEAN_MOTION_DDOT":0}]
